MEAN_MOTION,ECCENTRICITY,INCLINATION,RA_OF_ASC_NODE,ARG_OF_PERICENTER,MEAN_ANOMALY,REV_AT_EPOCH,BSTAR,MEAN_MOTION_DOT,MEAN_MOTION_DDOT,SEMIMAJOR_AXIS,PERIOD,APOAPSIS,PERIAPSIS,AP_DIFF,SEMIMINOR_AXIS,ORBITAL_VELOCITY,TARGET,RCS_SIZE_MEDIUM,RCS_SIZE_SMALL
14.24660775,0.0026709,98.7905,309.9491,325.2624,34.681,32869,0.0021421,4.957e-05,0.0,7187.77,101.077,828.833,790.438,38.39499999999998,7187.744362232379,7.446836212725519,1,0,1
14.2509822,0.0028586,98.7661,317.6212,298.8901,60.9411,33494,0.0017905,4.174e-05,0.0,7186.299,101.046,828.707,787.622,41.08500000000004,7186.269638181265,7.447598339068556,1,0,1
14.28349569,0.0018889,98.7272,337.9157,143.9008,216.3453,31739,0.00142,3.51e-05,0.0,7175.39,100.816,810.808,783.701,27.10699999999997,7175.377199296568,7.453257612884723,1,0,1
14.13268483,0.0047391,98.854,285.0073,136.5047,223.9878,33202,0.001848,3.458e-05,0.0,7226.346,101.891,882.457,813.964,68.49299999999994,7226.264851043335,7.426933099957357,1,0,1
14.17605592,0.0040658,98.8547,295.5538,37.5963,322.8042,33307,0.0017036,3.448e-05,0.0,7211.599,101.58,862.785,804.143,58.64199999999994,7211.539393256992,7.434522890216579,1,0,1
14.1103264,0.0046282,98.8274,274.6955,147.078,213.3289,31529,0.0012095,2.154e-05,0.0,7233.977,102.053,889.322,822.362,66.96000000000004,7233.899522840573,7.423014793282504,1,0,1
13.57501248,0.028207,98.7235,56.7818,4.9035,355.4768,30364,0.0022192,2.022e-05,0.0,7422.924,106.077,1254.167,835.411,418.756,7419.970443887115,7.327931160280939,1,0,1
14.23777702,0.0024915,98.7655,318.4119,294.4911,65.367,31714,0.0013782,3.117e-05,0.0,7190.742,101.139,830.523,794.691,35.831999999999994,7190.719681440116,7.44529713062964,1,0,1
14.24568638,0.0033875,98.7163,322.0603,233.322,126.4844,25870,0.00060947,1.379e-05,0.0,7188.08,101.083,834.295,785.596,48.69899999999996,7188.038757711115,7.4466756313104305,1,0,1
14.48389839,0.0074632,98.7351,38.1334,267.9273,91.3371,33163,0.0019792,7.632e-05,0.0,7109.049,99.421,783.971,677.858,106.11300000000006,7108.851012523738,7.487953418090515,1,0,1
14.35054608,0.0036665,98.6573,338.5369,78.3262,282.2034,32682,0.0015897,4.525e-05,0.0,7153.022,100.345,801.113,748.66,52.45300000000009,7152.97392000616,7.464901945707801,1,0,1
14.16252699,0.0040806,98.65,260.1681,64.3909,296.1474,33057,0.0019941,3.943e-05,0.0,7216.191,101.677,867.502,808.609,58.89299999999992,7216.130920282432,7.432157046383334,1,0,1
14.32980583,0.0018099,98.7177,339.7278,98.5872,261.7363,32834,0.0020303,5.524e-05,0.0,7159.922,100.49,794.746,768.828,25.918000000000006,7159.910272976074,7.46130412446753,1,0,1
14.21889136,0.0005363,98.7651,316.4016,226.1271,133.9464,31736,0.00082621,1.778e-05,0.0,7197.108,101.274,822.833,815.113,7.719999999999914,7197.106964992136,7.442003637809995,1,0,1
14.28562893,0.0029286,98.7075,330.1708,205.9767,153.9945,32168,0.0014572,3.629e-05,0.0,7174.676,100.801,817.552,775.529,42.023000000000025,7174.6452324195225,7.45362846541831,1,0,1
14.1544275,0.003359,98.8614,294.2723,113.3924,247.0787,33606,0.0014339,2.77e-05,0.0,7218.943,101.735,865.057,816.56,48.49700000000007,7218.902274647718,7.430740270696032,1,0,1
14.35963963,0.0033426,98.6658,328.3089,154.758,205.5247,33982,0.0026266,7.638e-05,0.0,7150.002,100.281,795.766,747.967,47.79899999999998,7149.962056492488,7.466478282599637,1,0,1
14.35062036,0.0035408,98.7035,344.5751,44.5487,315.8534,32796,0.0017878,5.092e-05,0.0,7152.997,100.344,800.19,749.535,50.655000000000086,7152.952160351279,7.464914990756301,1,0,1
15.06130879,0.005398,98.7225,182.9587,209.5058,150.3116,33803,0.0050626,0.00077196,0.0,6926.173,95.609,585.426,510.651,74.77500000000003,6926.072090451385,7.58616388066115,1,0,1
14.13712555,0.0056205,98.6367,259.0899,127.3036,233.3279,33493,0.0023479,4.464e-05,0.0,7224.832,101.859,887.304,806.09,81.21399999999994,7224.717882804161,7.427711234846589,1,0,1
15.37402651,0.0042723,98.7437,233.3263,82.0043,278.6042,34065,0.011577,0.00462692,0.0,6831.93,93.664,482.983,424.607,58.375999999999976,6831.867649652782,7.638308306525308,1,0,1
14.2719724,0.003447,98.683,332.7726,164.5542,195.6698,32480,0.00076091,1.826e-05,0.0,7179.252,100.897,825.864,776.37,49.49400000000003,7179.209348622792,7.45125264405116,1,0,1
14.4153365,0.0053468,98.7373,10.3592,338.2323,21.6593,34408,0.0015987,5.24e-05,0.0,7131.573,99.894,791.569,715.307,76.26199999999994,7131.47105960334,7.476119279657401,1,0,1
14.30621428,0.003062,98.7536,348.1746,130.6611,229.7241,32417,0.0014654,3.803e-05,0.0,7167.791,100.656,811.604,767.709,43.895000000000095,7167.7573978761175,7.457207386351292,1,0,1
13.68797895,0.0239356,98.7531,100.8058,246.2671,111.3204,31163,0.0018488,1.905e-05,0.0,7382.027,105.202,1180.585,827.199,353.3860000000001,7379.912067615534,7.348201776297464,1,0,1
14.12865265,0.0035755,98.9196,305.4888,143.521,216.8408,33800,0.0010594,1.938e-05,0.0,7227.72,101.921,875.428,823.743,51.684999999999945,7227.673799542425,7.426227131055475,1,0,1
14.23258419,0.0012672,98.7395,320.4243,161.7282,198.4354,34037,0.00076507,1.689e-05,0.0,7192.491,101.176,823.47,805.242,18.228000000000065,7192.4852251616185,7.444391838123336,1,0,1
14.35799676,0.0039622,98.6999,348.2323,28.436,331.8975,34282,0.001599,4.626e-05,0.0,7150.547,100.293,800.744,744.08,56.66399999999999,7150.490871457921,7.466193737361066,1,0,1
14.20896218,0.0049613,98.8039,302.8758,330.0646,29.7695,33958,0.0014813,3.201e-05,0.0,7200.46,101.344,858.049,786.602,71.447,7200.371381601653,7.440271213765237,1,0,1
14.15359065,0.0003056,98.8401,304.3608,146.6927,213.4439,31328,0.00014469,2.38e-06,0.0,7219.228,101.741,843.299,838.887,4.412000000000035,7219.227662893231,7.430593594217692,1,0,1
14.27823088,0.0011951,98.7394,331.8203,102.0004,258.2517,31475,0.0018471,4.528e-05,0.0,7177.154,100.853,807.596,790.441,17.154999999999973,7177.148874562794,7.452341626243013,1,0,1
14.18554161,0.0015199,98.8147,313.1266,57.26,303.0038,31083,0.0007422,1.493e-05,0.0,7208.384,101.512,841.205,819.293,21.912000000000035,7208.375673965633,7.436180635320326,1,0,1
14.24570083,0.0016998,98.7756,332.7495,105.3797,254.9261,31440,0.0017145,3.943e-05,0.0,7188.075,101.083,822.159,797.722,24.43700000000001,7188.064615667926,7.446678221250831,1,0,1
14.21193066,0.0005042,98.773,315.4154,238.8107,121.2576,31226,0.00074892,1.585e-05,0.0,7199.458,101.323,824.953,817.693,7.259999999999991,7199.45708488533,7.440788953599094,1,0,1
14.17217852,0.0046322,98.8042,285.5621,75.7751,284.8562,31090,0.0021364,4.315e-05,0.0,7212.914,101.608,868.191,801.368,66.82299999999998,7212.836614838618,7.433845158357469,1,0,1
14.40872959,0.0070748,98.6022,354.0705,328.0574,31.6334,31951,0.00098156,3.196e-05,0.0,7133.753,99.939,806.088,705.148,100.93999999999994,7133.574465627548,7.4749768806046335,1,0,1
14.28986741,0.0014392,98.7056,329.8261,113.3251,246.9447,31660,0.001612,4.039e-05,0.0,7173.257,100.771,805.445,784.798,20.647000000000048,7173.249571024592,7.454365660236409,1,0,1
14.2584601,0.0008926,98.735,324.232,120.3202,239.8862,30965,0.0014239,3.346e-05,0.0,7183.787,100.993,812.064,799.239,12.824999999999932,7183.784138213025,7.44890034954336,1,0,1
14.3935426,0.0019846,98.7945,98.9052,142.0441,218.2148,29441,0.0055043,0.00017146,0.0,7138.77,100.045,774.802,746.467,28.33500000000004,7138.755941473758,7.472349778859305,1,0,1
14.10292413,0.001811,98.9496,34.2617,8.0429,352.1029,29050,0.00078479,1.349e-05,0.0,7236.508,102.106,871.479,845.268,26.211000000000013,7236.496133126643,7.421716563978075,1,0,1
14.17838898,0.0017467,98.8331,34.6326,67.1383,293.1634,27105,0.00072623,1.441e-05,0.0,7210.808,101.563,845.268,820.078,25.19000000000005,7210.797000045013,7.434930649398479,1,0,1
14.18605799,0.003267,98.6724,5.6503,87.5431,272.9484,29234,0.00069696,1.409e-05,0.0,7208.209,101.508,853.623,806.525,47.09800000000007,7208.17053224844,7.436270902105937,1,0,1
14.22158131,0.0025816,99.004,69.5877,250.1868,109.6525,29045,0.0042226,9.355e-05,0.0,7196.2,101.255,836.643,799.488,37.15499999999997,7196.17601985208,7.442473130470023,1,0,1
14.27810517,0.0067755,98.7554,44.7192,338.9427,20.8966,29833,0.00082042,2.033e-05,0.0,7177.196,100.854,847.69,750.432,97.25800000000004,7177.031254904501,7.452319821153239,1,0,1
14.29267874,0.0047745,98.7459,38.9841,287.5056,72.0911,29543,0.0015457,3.936e-05,0.0,7172.316,100.751,828.425,759.937,68.48799999999994,7172.234250013366,7.4548546465014995,1,0,1
14.18928631,0.00258,99.0689,76.4008,132.1735,228.1636,28629,0.00096834,1.979e-05,0.0,7207.115,101.485,847.575,810.386,37.18900000000008,7207.09101323994,7.436835272985808,1,0,1
14.08955155,0.0047284,99.0292,40.0102,59.3088,301.2729,29164,0.0013699,2.351e-05,0.0,7241.086,102.203,897.19,828.713,68.47700000000009,7241.005052292331,7.419370093410661,1,0,1
14.25332464,0.005301,98.728,32.2774,7.3897,352.8051,29715,0.00088615,2.074e-05,0.0,7185.512,101.029,845.467,769.287,76.17999999999995,7185.411040687894,7.448006180528679,1,0,1
14.25038549,0.0044248,98.9664,72.5406,266.3286,93.2832,28571,0.0035393,8.338e-05,0.0,7186.5,101.05,840.164,776.566,63.59799999999996,7186.429647934772,7.447494186996371,1,0,1
14.24295828,0.0045367,98.7316,31.8728,311.0349,48.6912,28682,0.000783,1.783e-05,0.0,7188.998,101.103,843.478,778.249,65.22899999999993,7188.92401891017,7.446200164042532,1,0,1
14.2546757,0.005005,98.7273,28.359,11.5526,348.679,28652,0.00098366,2.31e-05,0.0,7185.058,101.019,842.884,770.962,71.92200000000003,7184.968006495148,7.448241484223713,1,0,1
14.34390873,0.0061482,99.0479,126.4451,295.1598,64.3216,29987,0.0018404,5.244e-05,0.0,7155.228,100.391,821.085,733.102,87.98300000000006,7155.092763613259,7.463751119825591,1,0,1
14.23617141,0.0053444,98.891,56.9728,39.6505,320.8562,30012,0.00081675,1.844e-05,0.0,7191.283,101.151,851.581,774.715,76.86599999999999,7191.180298355885,7.445017070624677,1,0,1
14.01133944,0.007088,98.7675,308.0768,36.6028,323.995,29001,0.001069,1.599e-05,0.0,7268.008,102.774,941.389,838.357,103.03200000000004,7267.825426276202,7.405616008580241,1,0,1
